[{"OBJECT_NAME":"ONEWEB-0207","OBJECT_ID":"2021-031AJ","EPOCH":"2026-06-03T07:47:38.928768","MEAN_MOTION":13.1450172,"ECCENTRICITY":0.0002109,"INCLINATION":87.8961,"RA_OF_ASC_NODE":292.4619,"ARG_OF_PERICENTER":101.509,"MEAN_ANOMALY":258.6277,"EPHEMERIS_TYPE":0,"CLASSIFICATION_TYPE":"U","NORAD_CAT_ID":48242,"ELEMENT_SET_NO":999,"REV_AT_EPOCH":24647,"BSTAR":-0.00041117,"MEAN_MOTION_DOT":-1.4e-06,"MEAN_MOTION_DDOT":0.0},{"OBJECT_NAME":"ONEWEB-0208","OBJECT_ID":"2021-031AK","EPOCH":"2026-06-03T11:00:37.353888","MEAN_MOTION":13.14502474,"ECCENTRICITY":0.0001678,"INCLINATION":87.8956,"RA_OF_ASC_NODE":292.4422,"ARG_OF_PERICENTER":107.5541,"MEAN_ANOMALY":252.5772,"EPHEMERIS_TYPE":0,"CLASSIFICATION_TYPE":"U","NORAD_CAT_ID":48243,"ELEMENT_SET_NO":999,"REV_AT_EPOCH":24650,"BSTAR":0.00042111,"MEAN_MOTION_DOT":1.69e-06,"MEAN_MOTION_DDOT":0.0},{"OBJECT_NAME":"ONEWEB-0200","OBJECT_ID":"2021-031AL","EPOCH":"2026-06-04T04:24:08.269056","MEAN_MOTION":13.14520711,"ECCENTRICITY":0.0001986,"INCLINATION":87.8906,"RA_OF_ASC_NODE":292.2919,"ARG_OF_PERICENTER":154.133,"MEAN_ANOMALY":205.99,"EPHEMERIS_TYPE":0,"CLASSIFICATION_TYPE":"U","NORAD_CAT_ID":48244,"ELEMENT_SET_NO":999,"REV_AT_EPOCH":24652,"BSTAR":0.0094177,"MEAN_MOTION_DOT":3.507e-05,"MEAN_MOTION_DDOT":0.0},{"OBJECT_NAME":"ONEWEB-0217","OBJECT_ID":"2021-031AM","EPOCH":"2026-06-03T06:51:42.299136","MEAN_MOTION":13.14501872,"ECCENTRICITY":0.0001601,"INCLINATION":87.8953,"RA_OF_ASC_NODE":292.4644,"ARG_OF_PERICENTER":107.6974,"MEAN_ANOMALY":252.433,"EPHEMERIS_TYPE":0,"CLASSIFICATION_TYPE":"U","NORAD_CAT_ID":48245,"ELEMENT_SET_NO":999,"REV_AT_EPOCH":24635,"BSTAR":0.00066225,"MEAN_MOTION_DOT":2.58e-06,"MEAN_MOTION_DDOT":0.0},{"OBJECT_NAME":"ONEWEB-0211","OBJECT_ID":"2021-045A","EPOCH":"2026-06-04T13:43:09.003072","MEAN_MOTION":13.16196918,"ECCENTRICITY":0.0001552,"INCLINATION":87.9001,"RA_OF_ASC_NODE":261.5974,"ARG_OF_PERICENTER":119.4424,"MEAN_ANOMALY":240.6861,"EPHEMERIS_TYPE":0,"CLASSIFICATION_TYPE":"U","NORAD_CAT_ID":48767,"ELEMENT_SET_NO":999,"REV_AT_EPOCH":24278,"BSTAR":0.00030089,"MEAN_MOTION_DOT":1.27e-06,"MEAN_MOTION_DDOT":0.0},{"OBJECT_NAME":"ONEWEB-0223","OBJECT_ID":"2021-045B","EPOCH":"2026-06-04T06:19:26.160672","MEAN_MOTION":13.15544437,"ECCENTRICITY":0.0001597,"INCLINATION":87.9008,"RA_OF_ASC_NODE":261.7645,"ARG_OF_PERICENTER":105.0968,"MEAN_ANOMALY":255.0339,"EPHEMERIS_TYPE":0,"CLASSIFICATION_TYPE":"U","NORAD_CAT_ID":48768,"ELEMENT_SET_NO":999,"REV_AT_EPOCH":24270,"BSTAR":5.7328000000000004e-05,"MEAN_MOTION_DOT":3.4e-07,"MEAN_MOTION_DDOT":0.0},{"OBJECT_NAME":"ONEWEB-0230","OBJECT_ID":"2021-045C","EPOCH":"2026-06-04T05:38:23.714016","MEAN_MOTION":13.15547833,"ECCENTRICITY":0.0002048,"INCLINATION":87.8999,"RA_OF_ASC_NODE":261.7842,"ARG_OF_PERICENTER":95.4358,"MEAN_ANOMALY":264.7006,"EPHEMERIS_TYPE":0,"CLASSIFICATION_TYPE":"U","NORAD_CAT_ID":48769,"ELEMENT_SET_NO":999,"REV_AT_EPOCH":24296,"BSTAR":-6.7533e-05,"MEAN_MOTION_DOT":-1.3e-07,"MEAN_MOTION_DDOT":0.0},{"OBJECT_NAME":"ONEWEB-0237","OBJECT_ID":"2021-045D","EPOCH":"2026-06-04T05:22:24.606624","MEAN_MOTION":13.15550695,"ECCENTRICITY":0.0001677,"INCLINATION":87.9,"RA_OF_ASC_NODE":261.7882,"ARG_OF_PERICENTER":98.0738,"MEAN_ANOMALY":262.0583,"EPHEMERIS_TYPE":0,"CLASSIFICATION_TYPE":"U","NORAD_CAT_ID":48770,"ELEMENT_SET_NO":999,"REV_AT_EPOCH":24268,"BSTAR":0.00024698,"MEAN_MOTION_DOT":1.06e-06,"MEAN_MOTION_DDOT":0.0},{"OBJECT_NAME":"ONEWEB-0235","OBJECT_ID":"2021-045E","EPOCH":"2026-06-04T15:43:03.343584","MEAN_MOTION":13.1554823,"ECCENTRICITY":0.0001508,"INCLINATION":87.9007,"RA_OF_ASC_NODE":261.6872,"ARG_OF_PERICENTER":101.8646,"MEAN_ANOMALY":258.2653,"EPHEMERIS_TYPE":0,"CLASSIFICATION_TYPE":"U","NORAD_CAT_ID":48771,"ELEMENT_SET_NO":999,"REV_AT_EPOCH":24273,"BSTAR":0.00034867,"MEAN_MOTION_DOT":1.44e-06,"MEAN_MOTION_DDOT":0.0},{"OBJECT_NAME":"ONEWEB-0242","OBJECT_ID":"2021-045F","EPOCH":"2026-06-04T13:44:24.711072","MEAN_MOTION":13.15548402,"ECCENTRICITY":0.0001832,"INCLINATION":87.9008,"RA_OF_ASC_NODE":261.6997,"ARG_OF_PERICENTER":96.24,"MEAN_ANOMALY":263.8939,"EPHEMERIS_TYPE":0,"CLASSIFICATION_TYPE":"U","NORAD_CAT_ID":48772,"ELEMENT_SET_NO":999,"REV_AT_EPOCH":24276,"BSTAR":0.00024091000000000002,"MEAN_MOTION_DOT":1.04e-06,"MEAN_MOTION_DDOT":0.0},{"OBJECT_NAME":"ONEWEB-0241","OBJECT_ID":"2021-045G","EPOCH":"2026-06-04T06:08:04.124256","MEAN_MOTION":13.15547788,"ECCENTRICITY":0.0001616,"INCLINATION":87.8996,"RA_OF_ASC_NODE":261.7827,"ARG_OF_PERICENTER":108.5903,"MEAN_ANOMALY":251.5402,"EPHEMERIS_TYPE":0,"CLASSIFICATION_TYPE":"U","NORAD_CAT_ID":48773,"ELEMENT_SET_NO":999,"REV_AT_EPOCH":24263,"BSTAR":-8.727700000000001e-05,"MEAN_MOTION_DOT":-2e-07,"MEAN_MOTION_DDOT":0.0},{"OBJECT_NAME":"ONEWEB-0243","OBJECT_ID":"2021-045H","EPOCH":"2026-06-04T05:04:10.418016","MEAN_MOTION":13.15548104,"ECCENTRICITY":0.000163,"INCLINATION":87.8999,"RA_OF_ASC_NODE":261.8035,"ARG_OF_PERICENTER":85.0689,"MEAN_ANOMALY":275.0627,"EPHEMERIS_TYPE":0,"CLASSIFICATION_TYPE":"U","NORAD_CAT_ID":48774,"ELEMENT_SET_NO":999,"REV_AT_EPOCH":24265,"BSTAR":0.00041966,"MEAN_MOTION_DOT":1.71e-06,"MEAN_MOTION_DDOT":0.0},{"OBJECT_NAME":"ONEWEB-0222","OBJECT_ID":"2021-045J","EPOCH":"2026-06-04T06:29:44.109024","MEAN_MOTION":13.15548232,"ECCENTRICITY":0.0001732,"INCLINATION":87.9008,"RA_OF_ASC_NODE":261.758,"ARG_OF_PERICENTER":104.9506,"MEAN_ANOMALY":255.1816,"EPHEMERIS_TYPE":0,"CLASSIFICATION_TYPE":"U","NORAD_CAT_ID":48775,"ELEMENT_SET_NO":999,"REV_AT_EPOCH":24270,"BSTAR":0.00041321,"MEAN_MOTION_DOT":1.68e-06,"MEAN_MOTION_DDOT":0.0},{"OBJECT_NAME":"ONEWEB-0244","OBJECT_ID":"2021-045K","EPOCH":"2026-06-04T05:17:51.715680","MEAN_MOTION":13.15548097,"ECCENTRICITY":0.0001821,"INCLINATION":87.9015,"RA_OF_ASC_NODE":261.7625,"ARG_OF_PERICENTER":100.4272,"MEAN_ANOMALY":259.7064,"EPHEMERIS_TYPE":0,"CLASSIFICATION_TYPE":"U","NORAD_CAT_ID":48776,"ELEMENT_SET_NO":999,"REV_AT_EPOCH":24326,"BSTAR":0.00036714,"MEAN_MOTION_DOT":1.51e-06,"MEAN_MOTION_DDOT":0.0},{"OBJECT_NAME":"ONEWEB-0247","OBJECT_ID":"2021-045L","EPOCH":"2026-06-03T07:19:00.778368","MEAN_MOTION":13.15545237,"ECCENTRICITY":0.0001541,"INCLINATION":87.9004,"RA_OF_ASC_NODE":261.979,"ARG_OF_PERICENTER":83.6278,"MEAN_ANOMALY":276.5028,"EPHEMERIS_TYPE":0,"CLASSIFICATION_TYPE":"U","NORAD_CAT_ID":48777,"ELEMENT_SET_NO":999,"REV_AT_EPOCH":24258,"BSTAR":0.0060933,"MEAN_MOTION_DOT":2.307e-05,"MEAN_MOTION_DDOT":0.0},{"OBJECT_NAME":"ONEWEB-0245","OBJECT_ID":"2021-045M","EPOCH":"2026-06-04T16:03:35.894016","MEAN_MOTION":13.15547827,"ECCENTRICITY":0.0001915,"INCLINATION":87.9009,"RA_OF_ASC_NODE":261.6854,"ARG_OF_PERICENTER":111.1968,"MEAN_ANOMALY":248.9367,"EPHEMERIS_TYPE":0,"CLASSIFICATION_TYPE":"U","NORAD_CAT_ID":48778,"ELEMENT_SET_NO":999,"REV_AT_EPOCH":24273,"BSTAR":0.0001073,"MEAN_MOTION_DOT":5.3e-07,"MEAN_MOTION_DDOT":0.0}]