ONEWEB-0207             
1 48242U 21031AJ  26154.32475612 -.00000140  00000+0 -41117-3 0  9998
2 48242  87.8961 292.4619 0002109 101.5090 258.6277 13.14501720246476
ONEWEB-0208             
1 48243U 21031AK  26154.45876567  .00000169  00000+0  42111-3 0  9991
2 48243  87.8956 292.4422 0001678 107.5541 252.5772 13.14502474246504
ONEWEB-0200             
1 48244U 21031AL  26155.18342904  .00003507  00000+0  94177-2 0  9993
2 48244  87.8906 292.2919 0001986 154.1330 205.9900 13.14520711246526
ONEWEB-0217             
1 48245U 21031AM  26154.28590624  .00000258  00000+0  66225-3 0  9992
2 48245  87.8953 292.4644 0001601 107.6974 252.4330 13.14501872246359
ONEWEB-0211             
1 48767U 21045A   26155.57163198  .00000127  00000+0  30089-3 0  9995
2 48767  87.9001 261.5974 0001552 119.4424 240.6861 13.16196918242786
ONEWEB-0223             
1 48768U 21045B   26155.26349723  .00000034  00000+0  57328-4 0  9995
2 48768  87.9008 261.7645 0001597 105.0968 255.0339 13.15544437242708
ONEWEB-0230             
1 48769U 21045C   26155.23499669 -.00000013  00000+0 -67533-4 0  9996
2 48769  87.8999 261.7842 0002048  95.4358 264.7006 13.15547833242962
ONEWEB-0237             
1 48770U 21045D   26155.22389591  .00000106  00000+0  24698-3 0  9994
2 48770  87.9000 261.7882 0001677  98.0738 262.0583 13.15550695242680
ONEWEB-0235             
1 48771U 21045E   26155.65489981  .00000144  00000+0  34867-3 0  9997
2 48771  87.9007 261.6872 0001508 101.8646 258.2653 13.15548230242733
ONEWEB-0242             
1 48772U 21045F   26155.57250823  .00000104  00000+0  24091-3 0  9994
2 48772  87.9008 261.6997 0001832  96.2400 263.8939 13.15548402242761
ONEWEB-0241             
1 48773U 21045G   26155.25560329 -.00000020  00000+0 -87277-4 0  9990
2 48773  87.8996 261.7827 0001616 108.5903 251.5402 13.15547788242636
ONEWEB-0243             
1 48774U 21045H   26155.21123169  .00000171  00000+0  41966-3 0  9993
2 48774  87.8999 261.8035 0001630  85.0689 275.0627 13.15548104242653
ONEWEB-0222             
1 48775U 21045J   26155.27064941  .00000168  00000+0  41321-3 0  9993
2 48775  87.9008 261.7580 0001732 104.9506 255.1816 13.15548232242709
ONEWEB-0244             
1 48776U 21045K   26155.22073745  .00000151  00000+0  36714-3 0  9993
2 48776  87.9015 261.7625 0001821 100.4272 259.7064 13.15548097243264
ONEWEB-0247             
1 48777U 21045L   26154.30487012  .00002307  00000+0  60933-2 0  9992
2 48777  87.9004 261.9790 0001541  83.6278 276.5028 13.15545237242589
ONEWEB-0245             
1 48778U 21045M   26155.66916544  .00000053  00000+0  10730-3 0  9997
2 48778  87.9009 261.6854 0001915 111.1968 248.9367 13.15547827242734
